{"type": "FeatureCollection", "features": [ {"type": "Feature", "properties": {"norad_id": 66052, "name": "HRC MONOBLOCK CAMERA", "group": "stations", "lat": 48.47486662852918, "lon": -139.8894840872616, "alt_km": 399.3363960204106, "timestamp": "2025-12-09T16:56:35.376040+00:00", "meta": {"OBJECT_NAME": "HRC MONOBLOCK CAMERA", "OBJECT_ID": "1998-067XR", "EPOCH": "2025-12-09T12:00:01.914624", "MEAN_MOTION": 15.53794743, "ECCENTRICITY": 0.0003812, "INCLINATION": 51.629, "RA_OF_ASC_NODE": 157.6571, "ARG_OF_PERICENTER": 171.0105, "MEAN_ANOMALY": 189.0954, "EPHEMERIS_TYPE": 0, "CLASSIFICATION_TYPE": "U", "NORAD_CAT_ID": 66052, "ELEMENT_SET_NO": 999, "REV_AT_EPOCH": 833, "BSTAR": 0.00068667, "MEAN_MOTION_DOT": 0.0004469, "MEAN_MOTION_DDOT": 0}, "tle": {"line1": "1 66052U 98067XR  25343.50002216  .00044690  00000+0  68667-3 0  9990", "line2": "2 66052  51.6290 157.6571 0003812 171.0105 189.0954 15.53794743  8333"}}, "geometry": {"type": "Point", "coordinates": [-139.8894840872616, 48.47486662852918]}}, {"type": "Feature", "properties": {"norad_id": 66174, "name": "HTV-X1", "group": "stations", "lat": 11.450129088925138, "lon": 166.7341596245213, "alt_km": 419.4169263988051, "timestamp": "2025-12-09T16:56:35.376050+00:00", "meta": {"OBJECT_NAME": "HTV-X1", "OBJECT_ID": "2025-241A", "EPOCH": "2025-12-09T04:29:48.234912", "MEAN_MOTION": 15.4943846, "ECCENTRICITY": 0.00033664, "INCLINATION": 51.6308, "RA_OF_ASC_NODE": 160.0685, "ARG_OF_PERICENTER": 223.6321, "MEAN_ANOMALY": 136.4401, "EPHEMERIS_TYPE": 0, "CLASSIFICATION_TYPE": "U", "NORAD_CAT_ID": 66174, "ELEMENT_SET_NO": 999, "REV_AT_EPOCH": 51, "BSTAR": 0.0002526091, "MEAN_MOTION_DOT": 0.00013707, "MEAN_MOTION_DDOT": 0}, "tle": {"line1": "1 66174U 25241A   25343.18736383  .00013707  00000+0  25261-3 0  9990", "line2": "2 66174  51.6308 160.0685 0003366 223.6321 136.4401 15.49438460   511"}}, "geometry": {"type": "Point", "coordinates": [166.7341596245213, 11.450129088925138]}}, {"type": "Feature", "properties": {"norad_id": 66515, "name": "SZ-21 MODULE", "group": "stations", "lat": -36.34409797448615, "lon": -89.0543756195649, "alt_km": 379.7924022240395, "timestamp": "2025-12-09T16:56:35.376060+00:00", "meta": {"OBJECT_NAME": "SZ-21 MODULE", "OBJECT_ID": "2025-246C", "EPOCH": "2025-12-09T05:09:56.835360", "MEAN_MOTION": 15.62223553, "ECCENTRICITY": 0.0006283, "INCLINATION": 41.4773, "RA_OF_ASC_NODE": 37.5424, "ARG_OF_PERICENTER": 241.0117, "MEAN_ANOMALY": 119.0093, "EPHEMERIS_TYPE": 0, "CLASSIFICATION_TYPE": "U", "NORAD_CAT_ID": 66515, "ELEMENT_SET_NO": 999, "REV_AT_EPOCH": 389, "BSTAR": 0.00035922, "MEAN_MOTION_DOT": 0.00032371, "MEAN_MOTION_DDOT": 0}, "tle": {"line1": "1 66515U 25246C   25343.21524115  .00032371  00000+0  35922-3 0  9999", "line2": "2 66515  41.4773  37.5424 0006283 241.0117 119.0093 15.62223553  3898"}}, "geometry": {"type": "Point", "coordinates": [-89.0543756195649, -36.34409797448615]}}, {"type": "Feature", "properties": {"norad_id": 66645, "name": "SHENZHOU-22", "group": "stations", "lat": 7.35470402641378, "lon": 43.52681730715016, "alt_km": 383.18180183383356, "timestamp": "2025-12-09T16:56:35.376071+00:00", "meta": {"OBJECT_NAME": "SHENZHOU-22", "OBJECT_ID": "2025-272A", "EPOCH": "2025-12-09T04:35:44.551104", "MEAN_MOTION": 15.58940873, "ECCENTRICITY": 0.00089717, "INCLINATION": 41.468, "RA_OF_ASC_NODE": 38.2458, "ARG_OF_PERICENTER": 2.1097, "MEAN_ANOMALY": 357.9778, "EPHEMERIS_TYPE": 0, "CLASSIFICATION_TYPE": "U", "NORAD_CAT_ID": 66645, "ELEMENT_SET_NO": 999, "REV_AT_EPOCH": 26300, "BSTAR": 0.00038224086, "MEAN_MOTION_DOT": 0.00030369, "MEAN_MOTION_DDOT": 0}, "tle": {"line1": "1 66645U 25272A   25343.19148786  .00030369  00000+0  38224-3 0  9998", "line2": "2 66645  41.4680  38.2458 0008971   2.1097 357.9778 15.58940873263003"}}, "geometry": {"type": "Point", "coordinates": [43.52681730715016, 7.35470402641378]}}, {"type": "Feature", "properties": {"norad_id": 66664, "name": "SOYUZ-MS 28", "group": "stations", "lat": 11.445925234393739, "lon": 166.7311991210887, "alt_km": 419.4108753872124, "timestamp": "2025-12-09T16:56:35.376081+00:00", "meta": {"OBJECT_NAME": "SOYUZ-MS 28", "OBJECT_ID": "2025-275A", "EPOCH": "2025-12-09T10:41:18.358368", "MEAN_MOTION": 15.49444513, "ECCENTRICITY": 0.0003352, "INCLINATION": 51.6308, "RA_OF_ASC_NODE": 158.7912, "ARG_OF_PERICENTER": 224.7147, "MEAN_ANOMALY": 135.3571, "EPHEMERIS_TYPE": 0, "CLASSIFICATION_TYPE": "U", "NORAD_CAT_ID": 66664, "ELEMENT_SET_NO": 999, "REV_AT_EPOCH": 193, "BSTAR": 0.00025353, "MEAN_MOTION_DOT": 0.00013761, "MEAN_MOTION_DDOT": 0}, "tle": {"line1": "1 66664U 25275A   25343.44535137  .00013761  00000+0  25353-3 0  9996", "line2": "2 66664  51.6308 158.7912 0003352 224.7147 135.3571 15.49444513  1934"}}, "geometry": {"type": "Point", "coordinates": [166.7311991210887, 11.445925234393739]}}, {"type": "Feature", "properties": {"norad_id": 66906, "name": "1998-067XS", "group": "stations", "lat": 25.860260932572743, "lon": -179.95457665102214, "alt_km": 415.0895467779892, "timestamp": "2025-12-09T16:56:35.376091+00:00", "meta": {"OBJECT_NAME": "1998-067XS", "OBJECT_ID": "1998-067XS", "EPOCH": "2025-12-09T12:09:24.113376", "MEAN_MOTION": 15.50312686, "ECCENTRICITY": 0.0003981, "INCLINATION": 51.63, "RA_OF_ASC_NODE": 158.4502, "ARG_OF_PERICENTER": 188.2752, "MEAN_ANOMALY": 171.8172, "EPHEMERIS_TYPE": 0, "CLASSIFICATION_TYPE": "U", "NORAD_CAT_ID": 66906, "ELEMENT_SET_NO": 999, "REV_AT_EPOCH": 111, "BSTAR": 0.00059212, "MEAN_MOTION_DOT": 0.00033864, "MEAN_MOTION_DDOT": 0}, "tle": {"line1": "1 66906U 98067XS  25343.50652909  .00033864  00000+0  59212-3 0  9995", "line2": "2 66906  51.6300 158.4502 0003981 188.2752 171.8172 15.50312686  1110"}}, "geometry": {"type": "Point", "coordinates": [-179.95457665102214, 25.860260932572743]}}, {"type": "Feature", "properties": {"norad_id": 66907, "name": "1998-067XT", "group": "stations", "lat": 31.036066021083606, "lon": -174.08164756021114, "alt_km": 413.32931702964015, "timestamp": "2025-12-09T16:56:35.376101+00:00", "meta": {"OBJECT_NAME": "1998-067XT", "OBJECT_ID": "1998-067XT", "EPOCH": "2025-12-09T12:07:37.113888", "MEAN_MOTION": 15.50864429, "ECCENTRICITY": 0.0004804, "INCLINATION": 51.6307, "RA_OF_ASC_NODE": 158.4423, "ARG_OF_PERICENTER": 208.5081, "MEAN_ANOMALY": 151.5646, "EPHEMERIS_TYPE": 0, "CLASSIFICATION_TYPE": "U", "NORAD_CAT_ID": 66907, "ELEMENT_SET_NO": 999, "REV_AT_EPOCH": 111, "BSTAR": 0.0012921, "MEAN_MOTION_DOT": 0.00076342, "MEAN_MOTION_DDOT": 0}, "tle": {"line1": "1 66907U 98067XT  25343.50529067  .00076342  00000+0  12921-2 0  9997", "line2": "2 66907  51.6307 158.4423 0004804 208.5081 151.5646 15.50864429  1114"}}, "geometry": {"type": "Point", "coordinates": [-174.08164756021114, 31.036066021083606]}}, {"type": "Feature", "properties": {"norad_id": 66908, "name": "1998-067XU", "group": "stations", "lat": 31.831331579596927, "lon": -173.0938491003246, "alt_km": 413.17174795407936, "timestamp": "2025-12-09T16:56:35.376111+00:00", "meta": {"OBJECT_NAME": "1998-067XU", "OBJECT_ID": "1998-067XU", "EPOCH": "2025-12-09T12:07:19.625664", "MEAN_MOTION": 15.50906956, "ECCENTRICITY": 0.0005005, "INCLINATION": 51.6299, "RA_OF_ASC_NODE": 158.441, "ARG_OF_PERICENTER": 206.9098, "MEAN_ANOMALY": 153.1632, "EPHEMERIS_TYPE": 0, "CLASSIFICATION_TYPE": "U", "NORAD_CAT_ID": 66908, "ELEMENT_SET_NO": 999, "REV_AT_EPOCH": 111, "BSTAR": 0.0012986, "MEAN_MOTION_DOT": 0.0007685, "MEAN_MOTION_DDOT": 0}, "tle": {"line1": "1 66908U 98067XU  25343.50508826  .00076850  00000+0  12986-2 0  9993", "line2": "2 66908  51.6299 158.4410 0005005 206.9098 153.1632 15.50906956  1110"}}, "geometry": {"type": "Point", "coordinates": [-173.0938491003246, 31.831331579596927]}}, {"type": "Feature", "properties": {"norad_id": 66909, "name": "SILVERSAT", "group": "stations", "lat": 32.49343566733708, "lon": -172.25243724330738, "alt_km": 412.7081701584193, "timestamp": "2025-12-09T16:56:35.376123+00:00", "meta": {"OBJECT_NAME": "SILVERSAT", "OBJECT_ID": "1998-067XV", "EPOCH": "2025-12-09T12:07:05.660832", "MEAN_MOTION": 15.51001422, "ECCENTRICITY": 0.0004874, "INCLINATION": 51.6302, "RA_OF_ASC_NODE": 158.4394, "ARG_OF_PERICENTER": 208.8709, "MEAN_ANOMALY": 151.2011, "EPHEMERIS_TYPE": 0, "CLASSIFICATION_TYPE": "U", "NORAD_CAT_ID": 66909, "ELEMENT_SET_NO": 999, "REV_AT_EPOCH": 111, "BSTAR": 0.0014217, "MEAN_MOTION_DOT": 0.00084543, "MEAN_MOTION_DDOT": 0}, "tle": {"line1": "1 66909U 98067XV  25343.50492663  .00084543  00000+0  14217-2 0  9992", "line2": "2 66909  51.6302 158.4394 0004874 208.8709 151.2011 15.51001422  1115"}}, "geometry": {"type": "Point", "coordinates": [-172.25243724330738, 32.49343566733708]}}, {"type": "Feature", "properties": {"norad_id": 66910, "name": "1998-067XW", "group": "stations", "lat": 36.81923173475659, "lon": -166.19327453047168, "alt_km": 411.4487287751781, "timestamp": "2025-12-09T16:56:35.376136+00:00", "meta": {"OBJECT_NAME": "1998-067XW", "OBJECT_ID": "1998-067XW", "EPOCH": "2025-12-08T22:10:28.284672", "MEAN_MOTION": 15.51111527, "ECCENTRICITY": 0.0005924, "INCLINATION": 51.6296, "RA_OF_ASC_NODE": 161.31, "ARG_OF_PERICENTER": 189.6176, "MEAN_ANOMALY": 170.4701, "EPHEMERIS_TYPE": 0, "CLASSIFICATION_TYPE": "U", "NORAD_CAT_ID": 66910, "ELEMENT_SET_NO": 999, "REV_AT_EPOCH": 102, "BSTAR": 0.0011827, "MEAN_MOTION_DOT": 0.00070418, "MEAN_MOTION_DDOT": 0}, "tle": {"line1": "1 66910U 98067XW  25342.92393848  .00070418  00000+0  11827-2 0  9994", "line2": "2 66910  51.6296 161.3100 0005924 189.6176 170.4701 15.51111527  1025"}}, "geometry": {"type": "Point", "coordinates": [-166.19327453047168, 36.81923173475659]}}]}